{
"type": "FeatureCollection",
"name": "portlouis_boundary",
"crs": { "type": "name", "properties": { "name": "urn:ogc:def:crs:OGC:1.3:CRS84" } },
"features": [
{ "type": "Feature", "properties": { "bbox_west": 57.4686699, "bbox_south": -20.198016, "bbox_east": 57.5565603, "bbox_north": -20.1384469, "place_id": 31822266, "osm_type": "relation", "osm_id": 3488099, "lat": -20.1682574, "lon": 57.5153729, "class": "boundary", "type": "administrative", "place_rank": 8, "importance": 0.39789054980758093, "addresstype": "state", "name": "Port Louis", "display_name": "Port Louis, Mauritius" }, "geometry": { "type": "Polygon", "coordinates": [ [ [ 57.4686699, -20.1813811 ], [ 57.4687289, -20.1817008 ], [ 57.4688228, -20.1820557 ], [ 57.4688872, -20.1822723 ], [ 57.4689272, -20.1832266 ], [ 57.4689312, -20.1834885 ], [ 57.4689145, -20.1837453 ], [ 57.4689112, -20.1838145 ], [ 57.4689051, -20.1839436 ], [ 57.4688903, -20.1842539 ], [ 57.4688807, -20.1843994 ], [ 57.4688662, -20.1846189 ], [ 57.4689299, -20.1853778 ], [ 57.4690031, -20.1863335 ], [ 57.469433, -20.1863745 ], [ 57.4695321, -20.1864011 ], [ 57.4701159, -20.186459 ], [ 57.4735732, -20.1868433 ], [ 57.4746319, -20.1868754 ], [ 57.4750832, -20.1868716 ], [ 57.4754694, -20.186822 ], [ 57.475758, -20.186738 ], [ 57.4760136, -20.1865811 ], [ 57.4766198, -20.1862186 ], [ 57.4767592, -20.186123 ], [ 57.4771303, -20.1853887 ], [ 57.4773319, -20.1850669 ], [ 57.4774351, -20.1849071 ], [ 57.4781444, -20.1834183 ], [ 57.4784819, -20.182926 ], [ 57.4788661, -20.1829369 ], [ 57.4795957, -20.1827684 ], [ 57.4860762, -20.1797512 ], [ 57.4872064, -20.1794307 ], [ 57.4883203, -20.1793773 ], [ 57.488987, -20.1792246 ], [ 57.4908816, -20.1790415 ], [ 57.4932802, -20.1789728 ], [ 57.4952253, -20.1789195 ], [ 57.4996102, -20.1807238 ], [ 57.5008919, -20.1812906 ], [ 57.5015328, -20.181707 ], [ 57.5024201, -20.1825283 ], [ 57.504848, -20.1858597 ], [ 57.5053779, -20.1868429 ], [ 57.5059325, -20.1874791 ], [ 57.5072512, -20.1881038 ], [ 57.5107759, -20.1912384 ], [ 57.5122302, -20.1922678 ], [ 57.5136598, -20.1927189 ], [ 57.515644, -20.1928577 ], [ 57.5168517, -20.1934476 ], [ 57.5206846, -20.1958651 ], [ 57.5258361, -20.197947 ], [ 57.5287404, -20.1980007 ], [ 57.5290982, -20.1979702 ], [ 57.5294803, -20.1979168 ], [ 57.5297974, -20.1979855 ], [ 57.5300983, -20.198016 ], [ 57.530269, -20.1979473 ], [ 57.5304642, -20.1977871 ], [ 57.5305292, -20.1975963 ], [ 57.5305617, -20.1974284 ], [ 57.5309358, -20.1973445 ], [ 57.5313992, -20.1972911 ], [ 57.531635, -20.19723 ], [ 57.532009, -20.1971461 ], [ 57.5324806, -20.1971308 ], [ 57.5328791, -20.1971156 ], [ 57.533188, -20.1970621 ], [ 57.5336027, -20.1970469 ], [ 57.5339279, -20.1970621 ], [ 57.5342207, -20.1971308 ], [ 57.5346028, -20.1971995 ], [ 57.5349281, -20.1971919 ], [ 57.5351557, -20.1970927 ], [ 57.5354728, -20.1968485 ], [ 57.535733, -20.1965661 ], [ 57.5360095, -20.1963296 ], [ 57.5363022, -20.196032 ], [ 57.5365136, -20.1957954 ], [ 57.537034, -20.1958641 ], [ 57.537408, -20.1958641 ], [ 57.5378145, -20.1958412 ], [ 57.5381642, -20.1958488 ], [ 57.538652, -20.1958946 ], [ 57.5390586, -20.1959327 ], [ 57.5394814, -20.1960014 ], [ 57.5398147, -20.1960243 ], [ 57.5401237, -20.1960625 ], [ 57.5404002, -20.1961006 ], [ 57.5408067, -20.196154 ], [ 57.541132, -20.1961769 ], [ 57.5414491, -20.1963067 ], [ 57.5417336, -20.196444 ], [ 57.5420426, -20.1966043 ], [ 57.5422622, -20.1967569 ], [ 57.5423679, -20.1968485 ], [ 57.5426118, -20.1968714 ], [ 57.5430021, -20.1970087 ], [ 57.5433598, -20.1971308 ], [ 57.5435631, -20.1971995 ], [ 57.5438802, -20.1972758 ], [ 57.5440591, -20.1972758 ], [ 57.5442705, -20.1972148 ], [ 57.5445307, -20.1970316 ], [ 57.5447096, -20.1968943 ], [ 57.5449454, -20.1968179 ], [ 57.5451649, -20.1966959 ], [ 57.5453438, -20.1966272 ], [ 57.5455715, -20.1966043 ], [ 57.5457666, -20.1965127 ], [ 57.545913, -20.1963753 ], [ 57.5461487, -20.1962761 ], [ 57.5463683, -20.1961846 ], [ 57.5468523, -20.1961592 ], [ 57.5472166, -20.1960803 ], [ 57.5475341, -20.195905 ], [ 57.5481973, -20.1956157 ], [ 57.5488044, -20.1952738 ], [ 57.5491219, -20.19523 ], [ 57.5493928, -20.1951599 ], [ 57.549673, -20.1950459 ], [ 57.5498131, -20.1947829 ], [ 57.5501773, -20.1946777 ], [ 57.5505416, -20.1945726 ], [ 57.5512328, -20.1944411 ], [ 57.5515877, -20.194292 ], [ 57.552092, -20.1940466 ], [ 57.5524563, -20.1938012 ], [ 57.5528019, -20.1935119 ], [ 57.5532315, -20.1932489 ], [ 57.5537172, -20.1930035 ], [ 57.5542869, -20.1927142 ], [ 57.5547913, -20.1924249 ], [ 57.5550472, -20.1922805 ], [ 57.5553517, -20.1919516 ], [ 57.5556818, -20.191647 ], [ 57.5557464, -20.1915702 ], [ 57.5559471, -20.1908317 ], [ 57.5561176, -20.1891157 ], [ 57.5560662, -20.1887388 ], [ 57.5559915, -20.188375 ], [ 57.5559648, -20.1876767 ], [ 57.5558841, -20.1872968 ], [ 57.5556786, -20.1864903 ], [ 57.5555292, -20.185675 ], [ 57.5554731, -20.1850789 ], [ 57.5553989, -20.1845219 ], [ 57.5553667, -20.1841342 ], [ 57.5553989, -20.1837868 ], [ 57.5556237, -20.1834422 ], [ 57.5559811, -20.1829795 ], [ 57.5562152, -20.1826556 ], [ 57.5563878, -20.1823201 ], [ 57.5565603, -20.18195 ], [ 57.5562029, -20.1815567 ], [ 57.5559318, -20.1812328 ], [ 57.5555902, -20.1808778 ], [ 57.5554511, -20.1803652 ], [ 57.5553032, -20.1799719 ], [ 57.5550074, -20.1795902 ], [ 57.5547363, -20.1792663 ], [ 57.5544282, -20.1788036 ], [ 57.5541201, -20.178202 ], [ 57.5540215, -20.1777972 ], [ 57.5538859, -20.1772072 ], [ 57.5536271, -20.1767329 ], [ 57.5534299, -20.1764322 ], [ 57.5531958, -20.1762239 ], [ 57.5532697, -20.1759579 ], [ 57.5536025, -20.175391 ], [ 57.5538366, -20.1748821 ], [ 57.5540585, -20.1742458 ], [ 57.5543912, -20.1735864 ], [ 57.5545638, -20.1729386 ], [ 57.55465, -20.1723371 ], [ 57.5548349, -20.1719553 ], [ 57.5549828, -20.1715851 ], [ 57.5548103, -20.1710877 ], [ 57.5544898, -20.1707753 ], [ 57.5541324, -20.1704399 ], [ 57.553849, -20.1701854 ], [ 57.5535285, -20.1698961 ], [ 57.5534299, -20.1693987 ], [ 57.5533437, -20.1687393 ], [ 57.5532204, -20.1680336 ], [ 57.5529247, -20.1674552 ], [ 57.5526905, -20.1669462 ], [ 57.5525426, -20.1666338 ], [ 57.5523084, -20.1661479 ], [ 57.5522222, -20.1657893 ], [ 57.551951, -20.1653844 ], [ 57.5517292, -20.1649679 ], [ 57.5515197, -20.1646671 ], [ 57.5511253, -20.1643201 ], [ 57.5508419, -20.1638689 ], [ 57.550694, -20.1633714 ], [ 57.5503982, -20.1629781 ], [ 57.5500654, -20.162712 ], [ 57.5498878, -20.162631 ], [ 57.5498084, -20.1624644 ], [ 57.5498271, -20.1622452 ], [ 57.5499719, -20.1621006 ], [ 57.5501914, -20.1618858 ], [ 57.5503268, -20.1616709 ], [ 57.5504721, -20.1614047 ], [ 57.5506077, -20.1611618 ], [ 57.5506447, -20.1608725 ], [ 57.5504352, -20.1604792 ], [ 57.5502257, -20.159947 ], [ 57.5501517, -20.1595305 ], [ 57.5502873, -20.1590909 ], [ 57.5504598, -20.1585124 ], [ 57.5505461, -20.1581422 ], [ 57.5505707, -20.1578298 ], [ 57.5507063, -20.1572514 ], [ 57.5507433, -20.1567539 ], [ 57.5508049, -20.1562448 ], [ 57.5508788, -20.1557936 ], [ 57.5511376, -20.1552036 ], [ 57.5513595, -20.1547755 ], [ 57.5514581, -20.1544863 ], [ 57.5510514, -20.1540813 ], [ 57.5506693, -20.1535376 ], [ 57.5501024, -20.1526698 ], [ 57.5494739, -20.1517674 ], [ 57.5488084, -20.15046 ], [ 57.5479457, -20.149141 ], [ 57.5476499, -20.1486204 ], [ 57.5473541, -20.1481113 ], [ 57.5470214, -20.1478336 ], [ 57.546553, -20.1476138 ], [ 57.5459985, -20.1471741 ], [ 57.5454685, -20.1466998 ], [ 57.5452754, -20.1464196 ], [ 57.5451974, -20.1463064 ], [ 57.5451358, -20.1460287 ], [ 57.5448646, -20.1456816 ], [ 57.5447044, -20.1451609 ], [ 57.5445319, -20.1446866 ], [ 57.5444086, -20.1442469 ], [ 57.5442607, -20.1438882 ], [ 57.543965, -20.1433907 ], [ 57.5435459, -20.14287 ], [ 57.5429548, -20.1415852 ], [ 57.5427454, -20.1413282 ], [ 57.5330239, -20.1435772 ], [ 57.5328684, -20.1436477 ], [ 57.5327021, -20.1437736 ], [ 57.5325036, -20.1437937 ], [ 57.5323373, -20.1437635 ], [ 57.5322139, -20.1436981 ], [ 57.5320959, -20.1436678 ], [ 57.5318842, -20.1437408 ], [ 57.5316723, -20.1437458 ], [ 57.5313129, -20.1438138 ], [ 57.5310232, -20.1438566 ], [ 57.5307228, -20.1441688 ], [ 57.5306155, -20.14433 ], [ 57.5302897, -20.1447656 ], [ 57.5300818, -20.1447493 ], [ 57.5299302, -20.1446158 ], [ 57.5297988, -20.1445604 ], [ 57.5296714, -20.1445466 ], [ 57.5296203, -20.1445315 ], [ 57.5294633, -20.1444835 ], [ 57.5290427, -20.1445448 ], [ 57.5282448, -20.144711 ], [ 57.5274512, -20.144865 ], [ 57.5268231, -20.1448472 ], [ 57.5265401, -20.144887 ], [ 57.5259421, -20.1448269 ], [ 57.5252668, -20.1445508 ], [ 57.5249763, -20.1440938 ], [ 57.5248585, -20.1440009 ], [ 57.524086, -20.1438072 ], [ 57.523732, -20.1437088 ], [ 57.5233779, -20.1433361 ], [ 57.5230131, -20.1431548 ], [ 57.5226708, -20.1430727 ], [ 57.5224227, -20.1429807 ], [ 57.5222122, -20.1429279 ], [ 57.5220995, -20.1429644 ], [ 57.5220271, -20.1430122 ], [ 57.5219909, -20.1430852 ], [ 57.5219413, -20.1431532 ], [ 57.5217683, -20.1433257 ], [ 57.5216932, -20.143361 ], [ 57.5215524, -20.1434063 ], [ 57.5213297, -20.1434453 ], [ 57.5211567, -20.1434642 ], [ 57.5210548, -20.1434013 ], [ 57.520914, -20.1432489 ], [ 57.5208148, -20.1431784 ], [ 57.5204164, -20.1430978 ], [ 57.5201978, -20.143021 ], [ 57.5200731, -20.1429896 ], [ 57.5200248, -20.1429656 ], [ 57.5197821, -20.1427314 ], [ 57.5195394, -20.1423588 ], [ 57.5195152, -20.1423059 ], [ 57.5194978, -20.1421674 ], [ 57.5194589, -20.1420364 ], [ 57.5193409, -20.1417267 ], [ 57.519188, -20.141495 ], [ 57.5191451, -20.1414573 ], [ 57.5188876, -20.1413735 ], [ 57.518618, -20.1412589 ], [ 57.5183485, -20.1411847 ], [ 57.5180494, -20.1410739 ], [ 57.5179595, -20.1410525 ], [ 57.5178429, -20.1410373 ], [ 57.5176632, -20.1410474 ], [ 57.5174848, -20.1410965 ], [ 57.5171334, -20.1412262 ], [ 57.5170382, -20.1413043 ], [ 57.5168102, -20.1414554 ], [ 57.5165688, -20.1415145 ], [ 57.5163824, -20.1415271 ], [ 57.5163194, -20.1415208 ], [ 57.516259, -20.1415007 ], [ 57.5161759, -20.1413993 ], [ 57.5161289, -20.141359 ], [ 57.5159975, -20.141184 ], [ 57.5158486, -20.1411047 ], [ 57.5157856, -20.1410468 ], [ 57.5156877, -20.1409864 ], [ 57.5155791, -20.1409524 ], [ 57.5153752, -20.1408365 ], [ 57.5153042, -20.1407786 ], [ 57.515213, -20.1406653 ], [ 57.5151432, -20.1405998 ], [ 57.5150802, -20.1405658 ], [ 57.5149152, -20.1405079 ], [ 57.5147945, -20.1404802 ], [ 57.5146631, -20.1404651 ], [ 57.5146014, -20.1404078 ], [ 57.5145397, -20.1403071 ], [ 57.5144807, -20.1402869 ], [ 57.514415, -20.1402869 ], [ 57.5141602, -20.1403826 ], [ 57.5141052, -20.1404191 ], [ 57.5140542, -20.1404808 ], [ 57.5139228, -20.14054 ], [ 57.5139094, -20.1405916 ], [ 57.5138866, -20.1406105 ], [ 57.5138343, -20.1406281 ], [ 57.5137485, -20.140608 ], [ 57.5136935, -20.1405828 ], [ 57.5136036, -20.1405136 ], [ 57.5134548, -20.1404393 ], [ 57.5133663, -20.1403637 ], [ 57.5132053, -20.1403247 ], [ 57.5130337, -20.1402643 ], [ 57.5129666, -20.1402567 ], [ 57.5126984, -20.1402542 ], [ 57.5126085, -20.1402731 ], [ 57.512516, -20.1403134 ], [ 57.5123926, -20.1403499 ], [ 57.5123175, -20.1404355 ], [ 57.5122223, -20.1404985 ], [ 57.5121941, -20.1405022 ], [ 57.5120415, -20.1404947 ], [ 57.5118602, -20.1404859 ], [ 57.511431, -20.1405211 ], [ 57.511128, -20.140467 ], [ 57.5110099, -20.1404254 ], [ 57.5108973, -20.1403625 ], [ 57.5105526, -20.1402189 ], [ 57.5104091, -20.1401132 ], [ 57.5101583, -20.1399734 ], [ 57.5100806, -20.1399432 ], [ 57.5099666, -20.1398097 ], [ 57.5099156, -20.1397065 ], [ 57.5099303, -20.1396536 ], [ 57.5099733, -20.139578 ], [ 57.5099746, -20.1394987 ], [ 57.5099518, -20.1394521 ], [ 57.5099129, -20.1394093 ], [ 57.509862, -20.1393816 ], [ 57.5097761, -20.139359 ], [ 57.5096474, -20.1393464 ], [ 57.5095978, -20.1393061 ], [ 57.5094543, -20.1391273 ], [ 57.5094073, -20.1390908 ], [ 57.5093805, -20.1390807 ], [ 57.5091927, -20.1390719 ], [ 57.5091002, -20.1390958 ], [ 57.5090184, -20.1391348 ], [ 57.5089039, -20.1392333 ], [ 57.5088492, -20.139324 ], [ 57.5088076, -20.139397 ], [ 57.508754, -20.1394864 ], [ 57.5086735, -20.1396639 ], [ 57.5086239, -20.1397836 ], [ 57.5085314, -20.1400165 ], [ 57.5084522, -20.1401588 ], [ 57.5083382, -20.1403338 ], [ 57.5082363, -20.1405365 ], [ 57.5081196, -20.1406926 ], [ 57.5080217, -20.1407808 ], [ 57.5079171, -20.1408739 ], [ 57.5078326, -20.140923 ], [ 57.5077347, -20.1409545 ], [ 57.5076503, -20.1409621 ], [ 57.5075363, -20.1409419 ], [ 57.5073659, -20.1408979 ], [ 57.507197, -20.1408349 ], [ 57.5071232, -20.140816 ], [ 57.5069891, -20.1408122 ], [ 57.5068644, -20.1408198 ], [ 57.5066417, -20.1408488 ], [ 57.5063547, -20.1409067 ], [ 57.506057, -20.1409923 ], [ 57.5058827, -20.1410439 ], [ 57.5056557, -20.1411153 ], [ 57.5056104, -20.1411598 ], [ 57.5053516, -20.1411314 ], [ 57.5051874, -20.1411509 ], [ 57.5049868, -20.1411515 ], [ 57.5048514, -20.1411049 ], [ 57.5047629, -20.1410734 ], [ 57.5046086, -20.1410847 ], [ 57.5044598, -20.1410507 ], [ 57.5042365, -20.1411486 ], [ 57.5039166, -20.1410659 ], [ 57.5036672, -20.1409878 ], [ 57.5032434, -20.1408971 ], [ 57.5028732, -20.1408443 ], [ 57.5025943, -20.1407889 ], [ 57.5024996, -20.1407452 ], [ 57.5021501, -20.1407275 ], [ 57.501654, -20.1406238 ], [ 57.5009716, -20.1402827 ], [ 57.5006068, -20.1401996 ], [ 57.5004346, -20.140188 ], [ 57.5001401, -20.1400762 ], [ 57.4999106, -20.1399078 ], [ 57.4996345, -20.1398269 ], [ 57.4993797, -20.1396897 ], [ 57.4992335, -20.1395398 ], [ 57.4991333, -20.139361 ], [ 57.4991265, -20.1391254 ], [ 57.4991892, -20.1390349 ], [ 57.4993055, -20.1390398 ], [ 57.4993998, -20.1390488 ], [ 57.4994427, -20.1390261 ], [ 57.4994387, -20.1389594 ], [ 57.4993663, -20.1388939 ], [ 57.4991963, -20.138747 ], [ 57.4990833, -20.138739 ], [ 57.4990217, -20.1387305 ], [ 57.4989317, -20.1386937 ], [ 57.4988454, -20.1386457 ], [ 57.4987359, -20.1386031 ], [ 57.4986139, -20.1385896 ], [ 57.4984945, -20.1385917 ], [ 57.4984088, -20.1386152 ], [ 57.4982853, -20.1387088 ], [ 57.4981604, -20.1388295 ], [ 57.4979796, -20.1388851 ], [ 57.497755, -20.1388697 ], [ 57.4976563, -20.1388171 ], [ 57.4975858, -20.1387335 ], [ 57.4975263, -20.1386131 ], [ 57.4975037, -20.1384927 ], [ 57.4974377, -20.1384822 ], [ 57.4973598, -20.1385306 ], [ 57.4972446, -20.1385476 ], [ 57.497191, -20.1385325 ], [ 57.4971387, -20.1384469 ], [ 57.4970649, -20.1384507 ], [ 57.4970153, -20.1384721 ], [ 57.4970153, -20.1385199 ], [ 57.4970582, -20.1385476 ], [ 57.4970783, -20.1386232 ], [ 57.4970381, -20.1386647 ], [ 57.4969697, -20.1386635 ], [ 57.496845, -20.1387617 ], [ 57.4966921, -20.1387755 ], [ 57.4965968, -20.1388195 ], [ 57.4959481, -20.1392172 ], [ 57.4957495, -20.1388962 ], [ 57.4938965, -20.1399426 ], [ 57.4892509, -20.1427093 ], [ 57.489106, -20.143195 ], [ 57.4888463, -20.143179 ], [ 57.4883795, -20.143318 ], [ 57.4875954, -20.143788 ], [ 57.4874519, -20.1438598 ], [ 57.4873909, -20.14389 ], [ 57.4872413, -20.1439617 ], [ 57.4871099, -20.1439819 ], [ 57.4868236, -20.1439507 ], [ 57.4862774, -20.1438148 ], [ 57.4856803, -20.1434531 ], [ 57.4854523, -20.1433649 ], [ 57.485227, -20.143297 ], [ 57.4849802, -20.143297 ], [ 57.4847603, -20.1433221 ], [ 57.4845001, -20.1434581 ], [ 57.484256, -20.1436495 ], [ 57.4841005, -20.1438963 ], [ 57.4840352, -20.1441757 ], [ 57.4840495, -20.1443898 ], [ 57.4841005, -20.1445913 ], [ 57.4841675, -20.1447701 ], [ 57.4843177, -20.1449388 ], [ 57.4853083, -20.1456303 ], [ 57.4857194, -20.1459127 ], [ 57.48591, -20.1462088 ], [ 57.4862347, -20.146635 ], [ 57.4865798, -20.1468814 ], [ 57.4869169, -20.1470919 ], [ 57.4870701, -20.1471725 ], [ 57.4870929, -20.1472544 ], [ 57.4883098, -20.1481359 ], [ 57.4886713, -20.1477274 ], [ 57.4888003, -20.1478137 ], [ 57.4884404, -20.148213 ], [ 57.4893963, -20.1489433 ], [ 57.4896138, -20.1489164 ], [ 57.4897382, -20.1489074 ], [ 57.4898518, -20.1488893 ], [ 57.4903326, -20.148812 ], [ 57.490416, -20.1487367 ], [ 57.4905529, -20.1487539 ], [ 57.4909977, -20.1493633 ], [ 57.491074, -20.1494213 ], [ 57.4911913, -20.1495105 ], [ 57.4917158, -20.1499624 ], [ 57.4919584, -20.1501926 ], [ 57.4920537, -20.1502597 ], [ 57.4921557, -20.1503316 ], [ 57.4923157, -20.150478 ], [ 57.4923573, -20.1506666 ], [ 57.4923295, -20.1507215 ], [ 57.4923643, -20.1507983 ], [ 57.492422, -20.1508462 ], [ 57.492296, -20.1509991 ], [ 57.4965285, -20.1540153 ], [ 57.4966452, -20.1539081 ], [ 57.496707, -20.1538848 ], [ 57.4968691, -20.153811 ], [ 57.4969875, -20.1539985 ], [ 57.4970506, -20.1539632 ], [ 57.497953, -20.1534827 ], [ 57.4978352, -20.1532848 ], [ 57.4984403, -20.1529653 ], [ 57.4985804, -20.1527624 ], [ 57.4986532, -20.1527153 ], [ 57.4987319, -20.152702 ], [ 57.4987628, -20.1526604 ], [ 57.4989, -20.1527235 ], [ 57.4990886, -20.1525962 ], [ 57.4991905, -20.1527227 ], [ 57.4992785, -20.1528719 ], [ 57.4991423, -20.152994 ], [ 57.499094, -20.1530041 ], [ 57.4988952, -20.1533286 ], [ 57.4997932, -20.153775 ], [ 57.4995505, -20.154206 ], [ 57.4992553, -20.1540626 ], [ 57.4992138, -20.1540561 ], [ 57.4991502, -20.1540724 ], [ 57.4991051, -20.1541377 ], [ 57.4990337, -20.1541095 ], [ 57.4984931, -20.155027 ], [ 57.4983313, -20.1550025 ], [ 57.4981535, -20.1546711 ], [ 57.4970077, -20.1551607 ], [ 57.4969924, -20.1552304 ], [ 57.4972721, -20.1558292 ], [ 57.4984223, -20.1582919 ], [ 57.4990384, -20.1581822 ], [ 57.4990982, -20.1580799 ], [ 57.4994102, -20.1582002 ], [ 57.4998933, -20.1580794 ], [ 57.4998806, -20.1580507 ], [ 57.499951, -20.1580268 ], [ 57.4999711, -20.1580495 ], [ 57.5000194, -20.1580337 ], [ 57.5001119, -20.1578575 ], [ 57.5004152, -20.1569675 ], [ 57.5003968, -20.1568552 ], [ 57.5005288, -20.1567679 ], [ 57.5005443, -20.1567215 ], [ 57.5006022, -20.1567105 ], [ 57.5006544, -20.1566848 ], [ 57.5007161, -20.1567433 ], [ 57.5008569, -20.1567823 ], [ 57.5010068, -20.1567774 ], [ 57.5010192, -20.1568258 ], [ 57.5010171, -20.1568941 ], [ 57.5014397, -20.1568499 ], [ 57.5014282, -20.1567798 ], [ 57.5014891, -20.1567319 ], [ 57.5013589, -20.1565101 ], [ 57.5014352, -20.1564668 ], [ 57.5015663, -20.1566879 ], [ 57.5016023, -20.1566737 ], [ 57.5016328, -20.156733 ], [ 57.5019685, -20.1567944 ], [ 57.5020037, -20.1568163 ], [ 57.5021168, -20.1568138 ], [ 57.5021195, -20.1568995 ], [ 57.5022732, -20.1568926 ], [ 57.5022725, -20.1568147 ], [ 57.50254, -20.1568056 ], [ 57.5025575, -20.1567685 ], [ 57.5026288, -20.1567886 ], [ 57.5027192, -20.1568189 ], [ 57.502717, -20.1568585 ], [ 57.50278, -20.1568591 ], [ 57.5029134, -20.1568186 ], [ 57.5033162, -20.1568319 ], [ 57.5039765, -20.1565685 ], [ 57.5042043, -20.156281 ], [ 57.5049084, -20.1568894 ], [ 57.5048936, -20.1569806 ], [ 57.5045862, -20.1574083 ], [ 57.5045503, -20.1574024 ], [ 57.5042776, -20.1571671 ], [ 57.5032223, -20.1582214 ], [ 57.5024092, -20.1579746 ], [ 57.5015462, -20.1577309 ], [ 57.5014672, -20.1577424 ], [ 57.5014134, -20.157804 ], [ 57.5013795, -20.15786 ], [ 57.501379, -20.1580918 ], [ 57.5008212, -20.1591217 ], [ 57.5007524, -20.1592099 ], [ 57.5006906, -20.1592989 ], [ 57.5006581, -20.1592842 ], [ 57.5005504, -20.1594309 ], [ 57.5003696, -20.1596497 ], [ 57.5009217, -20.1601831 ], [ 57.5006854, -20.1604453 ], [ 57.5006664, -20.1604361 ], [ 57.5006447, -20.1604317 ], [ 57.5006271, -20.1604325 ], [ 57.50061, -20.1604344 ], [ 57.5005938, -20.1604383 ], [ 57.5005767, -20.1604481 ], [ 57.5005616, -20.160467 ], [ 57.5005567, -20.1604887 ], [ 57.5005571, -20.1605108 ], [ 57.5005632, -20.1605428 ], [ 57.5005863, -20.160573 ], [ 57.5000792, -20.1610967 ], [ 57.499731, -20.1611296 ], [ 57.4995845, -20.1611279 ], [ 57.4995441, -20.1610836 ], [ 57.4994898, -20.1610571 ], [ 57.4994444, -20.1610509 ], [ 57.499383, -20.161056 ], [ 57.4993258, -20.1610816 ], [ 57.499282, -20.161107 ], [ 57.4991151, -20.1611117 ], [ 57.4990969, -20.1609641 ], [ 57.4989152, -20.1607497 ], [ 57.4988515, -20.1607384 ], [ 57.4988268, -20.160669 ], [ 57.4985701, -20.1605851 ], [ 57.4983816, -20.1605235 ], [ 57.4981092, -20.1603635 ], [ 57.4975672, -20.1600451 ], [ 57.4974736, -20.1599891 ], [ 57.4968659, -20.1596256 ], [ 57.4968208, -20.1596123 ], [ 57.4968155, -20.1596108 ], [ 57.4967562, -20.1596278 ], [ 57.4967269, -20.159657 ], [ 57.4967155, -20.1596829 ], [ 57.4967196, -20.1597074 ], [ 57.4967917, -20.1597726 ], [ 57.4973722, -20.1602238 ], [ 57.497422, -20.1602805 ], [ 57.4973154, -20.1606525 ], [ 57.4965576, -20.1600892 ], [ 57.4964697, -20.1597038 ], [ 57.4964303, -20.1595312 ], [ 57.4964004, -20.1594001 ], [ 57.4963712, -20.1593545 ], [ 57.4963074, -20.1593186 ], [ 57.4962301, -20.1593269 ], [ 57.4961942, -20.159355 ], [ 57.4961628, -20.1593902 ], [ 57.4961254, -20.1594523 ], [ 57.4960486, -20.1596153 ], [ 57.4959826, -20.1597555 ], [ 57.495853, -20.1600744 ], [ 57.4960843, -20.1604168 ], [ 57.4963072, -20.1606372 ], [ 57.4963186, -20.1606484 ], [ 57.4964244, -20.1605246 ], [ 57.496446, -20.1605415 ], [ 57.4963313, -20.1606857 ], [ 57.4963354, -20.1607172 ], [ 57.4963503, -20.160729 ], [ 57.4968516, -20.1611239 ], [ 57.4976504, -20.1613401 ], [ 57.499082, -20.1617278 ], [ 57.4990575, -20.1618263 ], [ 57.4990333, -20.161904 ], [ 57.4984812, -20.1618026 ], [ 57.4980255, -20.1617142 ], [ 57.4978042, -20.161671 ], [ 57.4976785, -20.1616031 ], [ 57.4973763, -20.161583 ], [ 57.4973532, -20.1618761 ], [ 57.497383, -20.1619507 ], [ 57.4968493, -20.1621892 ], [ 57.4967263, -20.1622345 ], [ 57.4959411, -20.1625749 ], [ 57.4958944, -20.1626239 ], [ 57.4950635, -20.1629967 ], [ 57.494952, -20.1629264 ], [ 57.4948868, -20.1628718 ], [ 57.4956956, -20.1624803 ], [ 57.4958854, -20.1624301 ], [ 57.4959612, -20.1623451 ], [ 57.4959829, -20.161265 ], [ 57.4958534, -20.1607252 ], [ 57.4958258, -20.1607277 ], [ 57.495717, -20.1604617 ], [ 57.4957727, -20.16044 ], [ 57.4957547, -20.1603917 ], [ 57.4956993, -20.1604105 ], [ 57.4955696, -20.1600465 ], [ 57.4955587, -20.1599533 ], [ 57.4955843, -20.1598628 ], [ 57.4956853, -20.1596478 ], [ 57.4956994, -20.1596179 ], [ 57.495711, -20.1595933 ], [ 57.4957424, -20.1594737 ], [ 57.4957268, -20.1593671 ], [ 57.4956016, -20.1588239 ], [ 57.495416, -20.1580183 ], [ 57.4953724, -20.1578727 ], [ 57.4952933, -20.1577832 ], [ 57.4952132, -20.1577049 ], [ 57.4923473, -20.1562204 ], [ 57.4917605, -20.1559184 ], [ 57.4917801, -20.1558848 ], [ 57.4916849, -20.1558351 ], [ 57.4916654, -20.1558672 ], [ 57.4912545, -20.155636 ], [ 57.4912856, -20.1555998 ], [ 57.4911493, -20.1555296 ], [ 57.4900845, -20.1549253 ], [ 57.4895944, -20.1546694 ], [ 57.4895386, -20.1546056 ], [ 57.4895266, -20.1544859 ], [ 57.48954, -20.154423 ], [ 57.4895809, -20.1543676 ], [ 57.4896063, -20.1543152 ], [ 57.489603, -20.154073 ], [ 57.4895204, -20.1540301 ], [ 57.489363, -20.1539849 ], [ 57.4887777, -20.1535922 ], [ 57.4886897, -20.153582 ], [ 57.4886088, -20.1536456 ], [ 57.4885569, -20.1537331 ], [ 57.4885127, -20.1537734 ], [ 57.4884532, -20.1537612 ], [ 57.4880983, -20.1537543 ], [ 57.4878448, -20.1537269 ], [ 57.4875546, -20.1536597 ], [ 57.4873289, -20.153704 ], [ 57.4871284, -20.1535765 ], [ 57.4856583, -20.1523304 ], [ 57.4847954, -20.1516688 ], [ 57.4833436, -20.1505388 ], [ 57.4828854, -20.1501839 ], [ 57.4827645, -20.1500341 ], [ 57.4827218, -20.1498289 ], [ 57.4827808, -20.1495595 ], [ 57.4827406, -20.1493328 ], [ 57.4826735, -20.149212 ], [ 57.4825689, -20.1491037 ], [ 57.4824482, -20.1490357 ], [ 57.4822336, -20.1489677 ], [ 57.4818447, -20.1488494 ], [ 57.4815389, -20.148794 ], [ 57.4812037, -20.1487663 ], [ 57.4808657, -20.1487915 ], [ 57.4805117, -20.1488821 ], [ 57.480163, -20.1489778 ], [ 57.4798679, -20.1491314 ], [ 57.4795943, -20.1492976 ], [ 57.4793309, -20.1495079 ], [ 57.4769487, -20.1523835 ], [ 57.4789907, -20.154061 ], [ 57.48046, -20.1552016 ], [ 57.4815926, -20.1561314 ], [ 57.4818483, -20.1564031 ], [ 57.4819028, -20.1565655 ], [ 57.4818537, -20.1566693 ], [ 57.4817316, -20.1568663 ], [ 57.4813865, -20.1573709 ], [ 57.4810053, -20.1579948 ], [ 57.4806415, -20.1586389 ], [ 57.4804703, -20.1589247 ], [ 57.4802293, -20.1593346 ], [ 57.4800936, -20.1595071 ], [ 57.4799636, -20.1597344 ], [ 57.4798114, -20.1600451 ], [ 57.479698, -20.1602169 ], [ 57.4792155, -20.1609309 ], [ 57.4790687, -20.1610896 ], [ 57.4788904, -20.1612453 ], [ 57.4787723, -20.1612654 ], [ 57.4786958, -20.1613661 ], [ 57.4785577, -20.1615021 ], [ 57.4784041, -20.1616094 ], [ 57.4782613, -20.1616683 ], [ 57.4781191, -20.161691 ], [ 57.477863, -20.1616532 ], [ 57.4775907, -20.161628 ], [ 57.4772765, -20.1616074 ], [ 57.4771364, -20.1617619 ], [ 57.4768181, -20.1620217 ], [ 57.4766742, -20.1621617 ], [ 57.4764899, -20.162311 ], [ 57.4764306, -20.1623568 ], [ 57.4763798, -20.1624149 ], [ 57.4762761, -20.16263 ], [ 57.4762114, -20.1628426 ], [ 57.4759747, -20.1628118 ], [ 57.4757954, -20.162842 ], [ 57.475661, -20.1629083 ], [ 57.4755334, -20.1630137 ], [ 57.4754293, -20.1631914 ], [ 57.475391, -20.1633604 ], [ 57.475381, -20.1635463 ], [ 57.4754112, -20.1637172 ], [ 57.4754877, -20.1638988 ], [ 57.47561, -20.1640545 ], [ 57.4757692, -20.16418 ], [ 57.4759216, -20.1642431 ], [ 57.4760446, -20.1642854 ], [ 57.4762765, -20.1643502 ], [ 57.4763127, -20.1643246 ], [ 57.4763078, -20.1642555 ], [ 57.4760429, -20.1641838 ], [ 57.4758494, -20.1641068 ], [ 57.4757053, -20.164006 ], [ 57.4755749, -20.1638397 ], [ 57.4754867, -20.1635978 ], [ 57.4754909, -20.1633677 ], [ 57.4755703, -20.1631743 ], [ 57.475653, -20.1630655 ], [ 57.4757601, -20.1629962 ], [ 57.4758799, -20.1629253 ], [ 57.4759827, -20.1629045 ], [ 57.4761883, -20.1629517 ], [ 57.4762177, -20.163024 ], [ 57.4761979, -20.1632146 ], [ 57.4761736, -20.1633172 ], [ 57.4761558, -20.1633968 ], [ 57.4762295, -20.1635604 ], [ 57.4762174, -20.16368 ], [ 57.4763497, -20.163783 ], [ 57.4764415, -20.1638396 ], [ 57.4765298, -20.1642627 ], [ 57.4764127, -20.1642739 ], [ 57.4763797, -20.1643221 ], [ 57.4763789, -20.1643877 ], [ 57.4768718, -20.1645343 ], [ 57.4769466, -20.1646459 ], [ 57.4769697, -20.1647086 ], [ 57.4771209, -20.1652783 ], [ 57.4770798, -20.1653607 ], [ 57.4770892, -20.1655117 ], [ 57.477171, -20.1656792 ], [ 57.4772219, -20.1658579 ], [ 57.4772514, -20.1660468 ], [ 57.4772139, -20.1661978 ], [ 57.477293, -20.1663388 ], [ 57.4772742, -20.1664603 ], [ 57.4772729, -20.1665252 ], [ 57.4773259, -20.1665453 ], [ 57.4773976, -20.1666007 ], [ 57.4774097, -20.1669507 ], [ 57.4774459, -20.1670413 ], [ 57.4774848, -20.1679137 ], [ 57.4774298, -20.1680333 ], [ 57.4774486, -20.168173 ], [ 57.4775049, -20.1682989 ], [ 57.4774405, -20.1684487 ], [ 57.4774298, -20.168596 ], [ 57.4774529, -20.1687414 ], [ 57.4773976, -20.168844 ], [ 57.4773748, -20.1689321 ], [ 57.477393, -20.1690767 ], [ 57.4773426, -20.1691839 ], [ 57.4772541, -20.169262 ], [ 57.4769497, -20.169413 ], [ 57.4767673, -20.1695842 ], [ 57.4765577, -20.1696905 ], [ 57.4763368, -20.1698423 ], [ 57.4760364, -20.1700135 ], [ 57.475795, -20.1700827 ], [ 57.4755591, -20.1701628 ], [ 57.4753551, -20.1702137 ], [ 57.4751593, -20.1702854 ], [ 57.4750118, -20.1703232 ], [ 57.4748938, -20.1703572 ], [ 57.4744427, -20.170431 ], [ 57.4741709, -20.1704704 ], [ 57.4738121, -20.1704509 ], [ 57.4735172, -20.1704577 ], [ 57.473263, -20.170478 ], [ 57.4731227, -20.1705371 ], [ 57.4730659, -20.1706089 ], [ 57.4730739, -20.1706769 ], [ 57.4731758, -20.1706958 ], [ 57.4733327, -20.1707273 ], [ 57.4734695, -20.1707286 ], [ 57.4736103, -20.1707298 ], [ 57.4737418, -20.1707399 ], [ 57.4739631, -20.1708304 ], [ 57.4741307, -20.1708569 ], [ 57.4742623, -20.1709293 ], [ 57.4743976, -20.1710558 ], [ 57.4745344, -20.1712069 ], [ 57.4754168, -20.1716412 ], [ 57.4755268, -20.1716387 ], [ 57.4765755, -20.1713498 ], [ 57.476652, -20.1713466 ], [ 57.4766895, -20.1713699 ], [ 57.476709, -20.1713869 ], [ 57.476717, -20.1714089 ], [ 57.476603, -20.1714215 ], [ 57.476137, -20.1715518 ], [ 57.4755228, -20.1717243 ], [ 57.4754926, -20.1717438 ], [ 57.4754845, -20.1717771 ], [ 57.475447, -20.1717904 ], [ 57.475396, -20.1717343 ], [ 57.4744982, -20.1713076 ], [ 57.4744244, -20.1713051 ], [ 57.4743775, -20.1713491 ], [ 57.4744898, -20.1719908 ], [ 57.4747566, -20.1729342 ], [ 57.4749103, -20.1734396 ], [ 57.4747793, -20.173537 ], [ 57.4746786, -20.1736137 ], [ 57.4742536, -20.1728565 ], [ 57.4738637, -20.1721371 ], [ 57.4736453, -20.1716735 ], [ 57.4735688, -20.1715921 ], [ 57.473448, -20.1714165 ], [ 57.4733475, -20.1713284 ], [ 57.4732592, -20.1713073 ], [ 57.4731357, -20.1713905 ], [ 57.4731088, -20.1714549 ], [ 57.4730036, -20.1715962 ], [ 57.4729572, -20.1716978 ], [ 57.4729291, -20.1717583 ], [ 57.4728496, -20.1717916 ], [ 57.4726957, -20.1719282 ], [ 57.4725272, -20.172214 ], [ 57.4723993, -20.1724519 ], [ 57.4722797, -20.1728084 ], [ 57.472178, -20.1729705 ], [ 57.4721087, -20.1731459 ], [ 57.4720607, -20.1733504 ], [ 57.471993, -20.1737044 ], [ 57.4719761, -20.1739539 ], [ 57.4719969, -20.1742398 ], [ 57.4720164, -20.1744613 ], [ 57.4720578, -20.174944 ], [ 57.4720268, -20.1750765 ], [ 57.4718453, -20.1751916 ], [ 57.4717082, -20.1752716 ], [ 57.471644, -20.1747914 ], [ 57.4715444, -20.1743036 ], [ 57.4714251, -20.1740531 ], [ 57.4713128, -20.1739809 ], [ 57.4712195, -20.1738547 ], [ 57.4711861, -20.1737855 ], [ 57.4710931, -20.1737679 ], [ 57.4710536, -20.1735037 ], [ 57.4710017, -20.173422 ], [ 57.4709892, -20.1733123 ], [ 57.4709333, -20.1732055 ], [ 57.4709149, -20.1730502 ], [ 57.4708835, -20.1728285 ], [ 57.4709076, -20.1726318 ], [ 57.4710087, -20.1721866 ], [ 57.4710911, -20.1718396 ], [ 57.4712424, -20.1715413 ], [ 57.4713224, -20.1714493 ], [ 57.4713666, -20.1712982 ], [ 57.4714523, -20.1711476 ], [ 57.4716217, -20.1710107 ], [ 57.4718294, -20.1708942 ], [ 57.4719206, -20.1707899 ], [ 57.4720412, -20.1706915 ], [ 57.4721638, -20.1705752 ], [ 57.47235, -20.1703831 ], [ 57.472519, -20.1700763 ], [ 57.4726281, -20.1699103 ], [ 57.4727619, -20.1697453 ], [ 57.4728114, -20.1695775 ], [ 57.4729264, -20.1693961 ], [ 57.4730236, -20.1692123 ], [ 57.4731607, -20.1687799 ], [ 57.4731611, -20.1686534 ], [ 57.4731999, -20.1684923 ], [ 57.4731651, -20.1683651 ], [ 57.4731316, -20.168216 ], [ 57.4730951, -20.1680017 ], [ 57.4729797, -20.1678071 ], [ 57.4728931, -20.1677037 ], [ 57.4727304, -20.1676469 ], [ 57.4725401, -20.1675695 ], [ 57.4723664, -20.1674646 ], [ 57.4720992, -20.1673524 ], [ 57.4719138, -20.1672158 ], [ 57.4717292, -20.1670403 ], [ 57.4715035, -20.1669061 ], [ 57.4713975, -20.1667827 ], [ 57.4712637, -20.1667403 ], [ 57.4710971, -20.1666253 ], [ 57.4709825, -20.1665301 ], [ 57.4707042, -20.1679272 ], [ 57.4704796, -20.1690547 ], [ 57.470297, -20.1699715 ], [ 57.4698011, -20.1724609 ], [ 57.4691422, -20.175769 ], [ 57.4690709, -20.1772523 ], [ 57.4690665, -20.1773447 ], [ 57.4690564, -20.1776932 ], [ 57.4687976, -20.1791204 ], [ 57.4687348, -20.179648 ], [ 57.468737, -20.1796979 ], [ 57.4687476, -20.1798218 ], [ 57.4688067, -20.180374 ], [ 57.4687261, -20.1810277 ], [ 57.4686805, -20.1812115 ], [ 57.4686699, -20.1813811 ] ] ] } }
]
}
